[{"OBJECT_NAME":"OBJECT M","OBJECT_ID":"2024-205M","EPOCH":"2026-03-09T22:23:47.520096","MEAN_MOTION":15.27663844,"ECCENTRICITY":0.00036602,"INCLINATION":97.3915,"RA_OF_ASC_NODE":144.193,"ARG_OF_PERICENTER":310.2554,"MEAN_ANOMALY":49.8364,"EPHEMERIS_TYPE":0,"CLASSIFICATION_TYPE":"U","NORAD_CAT_ID":61905,"ELEMENT_SET_NO":999,"REV_AT_EPOCH":7334,"BSTAR":0.00036391974,"MEAN_MOTION_DOT":9.771e-5,"MEAN_MOTION_DDOT":0},{"OBJECT_NAME":"STARLINK-35443","OBJECT_ID":"2025-253W","EPOCH":"2026-03-09T10:07:01.952832","MEAN_MOTION":15.27592799,"ECCENTRICITY":0.00017628,"INCLINATION":42.9973,"RA_OF_ASC_NODE":214.001,"ARG_OF_PERICENTER":280.0767,"MEAN_ANOMALY":79.9886,"EPHEMERIS_TYPE":0,"CLASSIFICATION_TYPE":"U","NORAD_CAT_ID":66339,"ELEMENT_SET_NO":999,"REV_AT_EPOCH":2020,"BSTAR":0.0014414418,"MEAN_MOTION_DOT":0.00039633,"MEAN_MOTION_DDOT":0}]
